[{"OBJECT_NAME":"CREW DRAGON 1","OBJECT_ID":"2020-084A","EPOCH":"2020-12-13T13:11:59.194752","MEAN_MOTION":15.49180997,"ECCENTRICITY":0.0001783,"INCLINATION":51.6445,"RA_OF_ASC_NODE":180.9789,"ARG_OF_PERICENTER":128.1963,"MEAN_ANOMALY":279.5916,"EPHEMERIS_TYPE":0,"CLASSIFICATION_TYPE":"U","NORAD_CAT_ID":46920,"ELEMENT_SET_NO":999,"REV_AT_EPOCH":427,"BSTAR":2.5206e-5,"MEAN_MOTION_DOT":9.48e-6,"MEAN_MOTION_DDOT":0},{"OBJECT_NAME":"SPOC","OBJECT_ID":"1998-067RR","EPOCH":"2020-12-14T19:07:47.037216","MEAN_MOTION":15.5094825,"ECCENTRICITY":0.0002825,"INCLINATION":51.6409,"RA_OF_ASC_NODE":174.4168,"ARG_OF_PERICENTER":115.8313,"MEAN_ANOMALY":244.2968,"EPHEMERIS_TYPE":0,"CLASSIFICATION_TYPE":"U","NORAD_CAT_ID":46921,"ELEMENT_SET_NO":999,"REV_AT_EPOCH":616,"BSTAR":0.00014712,"MEAN_MOTION_DOT":8.232e-5,"MEAN_MOTION_DDOT":0},{"OBJECT_NAME":"BOBCAT-1","OBJECT_ID":"1998-067RS","EPOCH":"2020-12-14T19:04:06.737952","MEAN_MOTION":15.5120571,"ECCENTRICITY":0.0002557,"INCLINATION":51.6409,"RA_OF_ASC_NODE":174.4004,"ARG_OF_PERICENTER":123.3153,"MEAN_ANOMALY":236.8081,"EPHEMERIS_TYPE":0,"CLASSIFICATION_TYPE":"U","NORAD_CAT_ID":46922,"ELEMENT_SET_NO":999,"REV_AT_EPOCH":612,"BSTAR":0.00019238,"MEAN_MOTION_DOT":0.00011014,"MEAN_MOTION_DDOT":0},{"OBJECT_NAME":"NEUTRON-1","OBJECT_ID":"1998-067RT","EPOCH":"2020-12-14T19:10:55.308000","MEAN_MOTION":15.508527,"ECCENTRICITY":0.0002748,"INCLINATION":51.6408,"RA_OF_ASC_NODE":174.4309,"ARG_OF_PERICENTER":127.1572,"MEAN_ANOMALY":232.9668,"EPHEMERIS_TYPE":0,"CLASSIFICATION_TYPE":"U","NORAD_CAT_ID":46923,"ELEMENT_SET_NO":999,"REV_AT_EPOCH":619,"BSTAR":0.00014156,"MEAN_MOTION_DOT":7.876e-5,"MEAN_MOTION_DDOT":0},{"OBJECT_NAME":"1998-067RU","OBJECT_ID":"1998-067RU","EPOCH":"2020-12-14T18:59:44.362752","MEAN_MOTION":15.51610404,"ECCENTRICITY":0.0002802,"INCLINATION":51.6406,"RA_OF_ASC_NODE":174.379,"ARG_OF_PERICENTER":159.2481,"MEAN_ANOMALY":200.8622,"EPHEMERIS_TYPE":0,"CLASSIFICATION_TYPE":"U","NORAD_CAT_ID":46924,"ELEMENT_SET_NO":999,"REV_AT_EPOCH":616,"BSTAR":0.00027728,"MEAN_MOTION_DOT":0.00016329,"MEAN_MOTION_DDOT":0},{"OBJECT_NAME":"LEMUR-2-BAXTER-OLIVER","OBJECT_ID":"1998-067RV","EPOCH":"2020-12-14T01:55:46.063200","MEAN_MOTION":15.5174997,"ECCENTRICITY":0.0002742,"INCLINATION":51.641,"RA_OF_ASC_NODE":177.8811,"ARG_OF_PERICENTER":160.7495,"MEAN_ANOMALY":199.3599,"EPHEMERIS_TYPE":0,"CLASSIFICATION_TYPE":"U","NORAD_CAT_ID":46925,"ELEMENT_SET_NO":999,"REV_AT_EPOCH":602,"BSTAR":0.00015678,"MEAN_MOTION_DOT":9.069e-5,"MEAN_MOTION_DDOT":0},{"OBJECT_NAME":"LEMUR-2-DJARA","OBJECT_ID":"1998-067RW","EPOCH":"2020-12-14T00:26:11.613408","MEAN_MOTION":15.51609563,"ECCENTRICITY":0.0002236,"INCLINATION":51.6409,"RA_OF_ASC_NODE":178.2157,"ARG_OF_PERICENTER":144.4826,"MEAN_ANOMALY":215.6313,"EPHEMERIS_TYPE":0,"CLASSIFICATION_TYPE":"U","NORAD_CAT_ID":46926,"ELEMENT_SET_NO":999,"REV_AT_EPOCH":603,"BSTAR":0.00034392,"MEAN_MOTION_DOT":0.00020374,"MEAN_MOTION_DDOT":0},{"OBJECT_NAME":"DESCENT","OBJECT_ID":"1998-067RX","EPOCH":"2020-12-14T17:40:29.014752","MEAN_MOTION":15.5080354,"ECCENTRICITY":0.0002868,"INCLINATION":51.6406,"RA_OF_ASC_NODE":174.7612,"ARG_OF_PERICENTER":144.6997,"MEAN_ANOMALY":215.4182,"EPHEMERIS_TYPE":0,"CLASSIFICATION_TYPE":"U","NORAD_CAT_ID":46927,"ELEMENT_SET_NO":999,"REV_AT_EPOCH":609,"BSTAR":0.00014695,"MEAN_MOTION_DOT":8.178e-5,"MEAN_MOTION_DDOT":0},{"OBJECT_NAME":"DRAGON CRS-21","OBJECT_ID":"2020-093A","EPOCH":"2020-12-13T13:11:59.194752","MEAN_MOTION":15.49180997,"ECCENTRICITY":0.0001783,"INCLINATION":51.6445,"RA_OF_ASC_NODE":180.9789,"ARG_OF_PERICENTER":128.1963,"MEAN_ANOMALY":279.5916,"EPHEMERIS_TYPE":0,"CLASSIFICATION_TYPE":"U","NORAD_CAT_ID":47233,"ELEMENT_SET_NO":999,"REV_AT_EPOCH":107,"BSTAR":2.5206e-5,"MEAN_MOTION_DOT":9.48e-6,"MEAN_MOTION_DDOT":0}]
